#dP2021 10 29  0  0  0.00000000      96 __u+U ITR00 FIT  IAC
## 2181 432000.00000000   900.00000000 59516 0.0000000000000
+  113   C06C07C08C09C10C11C12C13C14C16C19C20C21C22C23C24C25
+        C26C27C28C29C30C32C33C34C35C36C37C38C39C40C41C42C43
+        C44C45C46E01E02E03E04E05E07E08E09E11E12E13E14E15E18
+        E19E21E24E25E26E27E31E33E36G01G02G03G04G05G06G07G08
+        G09G10G11G12G13G14G15G16G17G18G19G20G21G22G23G24G25
+        G26G27G28G29G30G31G32R01R02R03R04R05R07R08R09R11R12
+        R13R14R15R16R17R18R19R20R21R22R24  0  0  0  0  0  0
++         7  9  8  7  9  7  5  8  7  8  6  6  7  5  6  8  7
++         7  7  6  6  5  7  8  6  5  7  6  8  8  9  6  5  8
++         7  8  7  8  6  6  5  6  7  6  8  7  8  8  5  7  7
++         8  7  5  6  7  6  6  7  8  7  7  8  6  6  7  7  6
++         6  6  7  7  6  6  7  6  6  7  6  7  7  7  7  7  5
++         7  7  6  6  6  8  6  8  8  6  7  6  6  8  5  6  6
++         7  6  6  7  7  8  6  7  7  6  6  0  0  0  0  0  0
%c M  cc GPS ccc cccc cccc cccc cccc ccccc ccccc ccccc ccccc
%c cc cc ccc ccc cccc cccc cccc cccc ccccc ccccc ccccc ccccc
%f  0.0000000  0.000000000  0.00000000000  0.000000000000000
%f  0.0000000  0.000000000  0.00000000000  0.000000000000000
%i    0    0    0    0      0      0      0      0         0
%i    0    0    0    0      0      0      0      0         0
/* INFORMATION & ANALYSIS CENTER (IAC)      ULTRA-RAPID DATA
/* S/V CLOCKS ARE ALIGNED TO GNSS TIME                      
/* G:C1WC2W R:C1PC2P E:C1XC5X C:C2IC6I J:C1CC2S             
/* PCV:IGS14_2163 OL/AL:FES2004  NONE     YN ORB:CoN CLK:CoN
*  2021 10 29 12  0  0.00000000
PC06 -18184.227145  32839.105352  19012.179050    407.150228
PC07  -5050.832378  37740.831088  18258.542687   -269.690752
PC08  -5175.994922  20494.862793 -36478.252284   -819.099140
PC09 -10967.120663  31463.227260  25870.466988   -223.272806
PC10   1426.899199  40724.170882  11998.843225      9.489275
PC11  19471.791843 -19161.425140   5638.235477    659.084439
PC12  23798.937766  -8420.740297 -11821.392276    731.704140
PC13   1752.645622  23510.871042 -34802.433061    457.882459
PC14   8897.657032 -20246.153405  17001.457514    561.053005
PC16 -21578.264092  32567.761027  15683.456457   -743.997245
PC19  -2525.570982  26204.631159  -9261.196885    942.310512
PC20 -12823.955450  12918.000263 -21154.850264   -791.202397
PC21  16014.627652   8967.274721  21031.737382   -933.119069
PC22   9555.266905  24840.781934   8418.698615   -962.434912
PC23 -15887.569316 -17703.930908 -14588.512843   -970.337308
PC24  21702.242145  -4354.396118 -16979.293784   -968.737638
PC25   2876.508709 -16155.533049 -22576.255027   -832.783679
PC26  26583.011334   8019.054156  -2586.236342    829.347440
PC27 -21019.366577    131.212673  18334.454587    620.900501
PC28  -6379.956806 -14886.046377  22729.814672     -9.175048
PC29 -11188.380890  21583.303814 -13708.731130    467.026668
PC30 -22892.908113  15473.502158   3842.065274    484.807843
PC32 -16081.914800  -8904.292756 -20989.616496   -967.378324
PC33   2469.735125 -26166.977334   9356.001848   -970.096887
PC34  22703.572486 -15964.099034  -3002.086332   -548.984811
PC35   6530.948213  14987.637972 -22615.726112    -23.984493
PC36  -3768.969768  15918.087491  22635.978531   -790.082022
PC37 -26276.706624  -9298.838303   1626.693257   -881.721613
PC38 -15166.986879  19271.838742 -34310.356054    185.656319
PC39 -24240.206023  32993.874322   9723.213720     33.800603
PC40  -8887.651382  34590.140556  22534.701874    212.851575
PC41  -9422.662581 -25003.340317  -8023.606443   -919.024129
PC42  13251.559148 -11966.103112  21477.152237   -951.955842
PC43  11777.226321 -21602.983281  13177.938896   -964.229394
PC44  20992.824139   -592.353639 -18396.112450    448.160450
PC45  16075.676197  17577.823015  14523.686175    586.654623
PC46 -20887.101664   5171.083462  17799.529587     17.435038
PE01  -7113.332244  16409.929531  23592.705065   -505.730730
PE02   6957.307088 -16539.699899 -23538.715971    256.713152
PE03  13346.714914 -25896.849596   5189.744344   -490.275793
PE04   -118.563722  26699.592246  12775.974841   -888.123224
PE05  18987.244961  -9867.239958  20445.964477   -238.066921
PE07 -13498.335913 -11704.629798 -23602.198306   -601.217854
PE08   -230.889793 -26509.554706 -13163.738689   5913.771997
PE09  13508.000009  11411.152350  23734.729017   5481.849339
PE11  23256.650045   6974.953787 -16939.311371   5180.818086
PE12   3178.100037  15841.514398 -24800.190422   4936.660384
PE13 -22874.394188  -7183.296340  17368.368450    423.119877
PE14  20156.552218 -15419.967650 -10503.793040  -1621.652904
PE15  -3150.072395 -15771.784168  24856.631935    784.009369
PE18 -13534.176925  26611.629834  -4136.861170  -1781.740398
PE19 -14586.710960  24641.790598  -7492.340009    414.224618
PE21 -19956.430398   -798.880039  21854.925524   -696.443863
PE24  21578.975425  19196.417550  -6426.654313  -1197.250550
PE25  20048.159177   1032.873343 -21737.364677   -551.710027
PE26 -28938.154037   6122.513446  -1316.882746   1173.952171
PE27 -21962.199837 -18411.035918   7442.136638   -152.994178
PE31  11014.326337  25062.865324  11264.698426   -487.387440
PE33 -18382.705333  15035.211391 -17665.426450   -463.176342
PE36  29062.914337  -5595.532659    307.767423   -282.697333
PG01  11571.033819  13332.182320 -20225.103271    525.750906
PG02  12648.075514 -14428.690404  19061.920189   -639.681669
PG03  12468.428606  23442.414224  -1964.938448     -1.663980
PG04   4383.893712  18208.006154  18806.658310   -202.937989
PG05  -2213.868739 -21985.741577  14455.593498    -59.273575
PG06  24326.726354  -6170.365305   8843.385257    105.349302
PG07  24171.804801   6754.619397   9785.463772    270.087889
PG08  -4270.383017  23768.278260 -10694.225955    -41.970328
PG09  13417.970194   7432.039210  21610.133081   -361.909661
PG10 -17384.009690  -2478.356221 -19893.282062   -234.332217
PG11  15155.007488 -12058.777153  18160.492881     20.939713
PG12  -9820.227548 -24556.576251  -3389.356782   -118.539466
PG13  12335.128152 -22819.553086  -5464.803502    206.656560
PG14  17451.203036   2689.541247 -19857.932752    -28.293736
PG15    737.005016 -24063.170950 -11236.092549   -110.427220
PG16  -2978.883885  20040.396078  16674.066123   -415.106465
PG17  18248.807970  -6462.785205 -17754.769826    526.075064
PG18 -24674.584215  -5711.790393   8156.434724    303.544803
PG19  19461.012158 -13548.264889 -12056.091800     72.201051
PG20   6496.881831 -15635.034175  20495.987152    518.393401
PG21   2675.550953  14738.261777 -21263.203204    149.339476
PG22   8646.176592  23252.907167  -9596.053054   -477.671553
PG23 -19061.708556 -13363.932732 -12885.043538     39.298412
PG24  -7260.138615 -14946.476415 -21056.441943    260.614254
PG25 -16875.300507 -19706.864173   6061.184705    232.133510
PG26 -12458.870048   9475.150083  21387.014997    149.895252
PG27 -11945.482837  23458.697840  -1416.886521   -212.458608
PG28  14064.788475  -4674.972098 -21489.876716    473.295000
PG29  -9809.350798 -11512.270810  21783.632536   -433.086546
PG30  26658.374948   -635.940474  -1072.566183   -486.712105
PG31 -23546.758124   7181.752240  10454.798837   -147.431695
PG32 -18407.781663  10498.888549 -15785.666943    -15.568482
PR01 -10932.520286   4996.244444 -22506.703035     87.371123
PR02  -5848.164480  22605.508834 -10157.569994    498.299719
PR03   2494.456518  24300.694819   7275.250182     45.525320
PR04   9044.122401  12364.178695  20410.958646    111.670575
PR05  10723.597323  -6414.327236  22244.973132     81.521406
PR07  -2732.286583 -24143.718078  -7819.490288    -40.332977
PR08  -9155.036156 -12349.956405 -20316.939023    -61.723442
PR09   4829.356158 -10242.780642 -22834.416421     20.731345
PR11 -21838.260724 -13168.731012    198.688051     50.526852
PR12 -18941.515499  -2266.313154  16974.687170    274.027500
PR13  -5548.425474   9501.696343  23001.701150    -62.797658
PR14  12085.277526  16304.540342  15477.431324     70.443715
PR15  21806.600989  13207.309481   -818.335170    100.547438
PR16  18251.834956    727.540383 -17757.244860    -24.046544
PR17   -632.058100  11867.627905 -22565.643300    470.294575
PR18  15237.665617   2434.759084 -20307.213488     95.387487
PR19  23087.887352  -7016.641435  -8245.459944   -164.954016
PR20  17623.176641 -14207.784061  11798.778819    -58.401506
PR21   -738.782929 -11199.069666  22905.208677   -250.458818
PR22 -15845.395682  -1924.015152  19855.212005   -141.859225
PR24 -16750.337596  14826.725661 -12261.327481     64.736772
EOF
